STARLINK-36307          
1 68306U 26057N   26165.50003471 -.02391545  00000+0 -59168-1 0  9993
2 68306  97.2848 292.2666 0001693  93.8100 261.1980 15.43913647  5887
STARLINK-36264          
1 68307U 26057P   26165.50003471 -.00048136  00000+0 -14980-2 0  9991
2 68307  97.2870 292.3350 0000993  96.6423  63.8383 15.33448497  5985
STARLINK-37138          
1 68308U 26057Q   26165.50003471 -.03040143  00000+0 -88961-1 0  9994
2 68308  97.2856 292.1595 0001150  55.9922  47.9876 15.39204539  5823
STARLINK-37149          
1 68309U 26057R   26165.50003471 -.02354242  00000+0 -70301-1 0  9991
2 68309  97.2855 292.3318 0001729  66.4385  71.3022 15.38215328  5933
STARLINK-37148          
1 68310U 26057S   26163.32321907  .00045712  00000+0  83624-3 0  9997
2 68310  97.2840 290.1794 0000681  73.0424 287.0902 15.49225419 13168
STARLINK-37140          
1 68311U 26057T   26165.50003471 -.00039895  00000+0 -12390-2 0  9991
2 68311  97.2856 292.2721 0001138  53.1144 317.2861 15.33468828  5937
STARLINK-36854          
1 68312U 26057U   26165.50003471 -.00024995  00000+0 -77565-3 0  9993
2 68312  97.2859 292.3122 0001428  88.7649  11.8519 15.33395912  5933
STARLINK-36815          
1 68313U 26057V   26165.23656208  .00053637  00000+0  97976-3 0  9997
2 68313  97.2839 292.0146 0002882  70.5230 289.6332 15.49227352 13458
STARLINK-37155          
1 68314U 26057W   26165.50003471 -.00041212  00000+0 -12802-2 0  9998
2 68314  97.2858 292.3038 0001512  59.5231  25.8897 15.33467916  5935
STARLINK-37150          
1 68315U 26057X   26164.87116004  .00058431  00000+0  10674-2 0  9999
2 68315  97.2843 291.5913 0000345  78.4645 281.6645 15.49207451 13390
STARLINK-37154          
1 68316U 26057Y   26165.28094320  .00078688  00000+0  14318-2 0  9997
2 68316  97.2857 291.9519 0002477  85.8209 274.3325 15.49232923 13451
STARLINK-37139          
1 68317U 26057Z   26165.25002315  .00096729  00000+0  29704-2 0  9999
2 68317  97.2854 292.0325 0001785  93.7351 352.5126 15.33337059  5956
STARLINK-37113          
1 68318U 26057AA  26165.25002315 -.02295250  00000+0 -57372-1 0  9995
2 68318  97.2853 291.9636 0001938  87.3846 189.5915 15.43464843  5954
PROGRESS-MS 33          
1 68319U 26058A   26165.48029322  .00008443  00000+0  15998-3 0  9991
2 68319  51.6335 313.4905 0004925 185.2578 174.8360 15.49225904571455
STARLINK-36987          
1 68321U 26059A   26165.51226889  .00023642  00000+0  80765-3 0  9998
2 68321  53.1608 258.2470 0001260  85.4153 274.6991 15.30206029 13008
STARLINK-37088          
1 68322U 26059B   26165.49964477  .00033319  00000+0  99262-3 0  9992
2 68322  53.1594 253.8946 0001087  97.1639 262.9487 15.34407827 13067
STARLINK-36983          
1 68323U 26059C   26165.48912575  .00030293  00000+0  90391-3 0  9996
2 68323  53.1593 253.8351 0001201 104.8692 255.2444 15.34405667 13057
STARLINK-37164          
1 68324U 26059D   26165.53548704  .00030488  00000+0  10366-2 0  9991
2 68324  53.1591 258.3964 0000830  87.6878 272.4218 15.30221701 14138
STARLINK-36309          
1 68325U 26059E   26165.52489238  .00021904  00000+0  65724-3 0  9999
2 68325  53.1602 254.0564 0001474  87.8251 272.2921 15.34413492 13067
STARLINK-37206          
1 68326U 26059F   26165.51543818  .00019666  00000+0  67444-3 0  9997
2 68326  53.1604 258.2656 0001194  86.4493 273.6644 15.30196474 13005
STARLINK-37199          
1 68327U 26059G   26165.49644139  .00024675  00000+0  84231-3 0  9992
2 68327  53.1579 258.1663 0001141 103.0036 257.1092 15.30205847 13004
STARLINK-36245          
1 68328U 26059H   26165.53232272  .00027716  00000+0  94435-3 0  9995
2 68328  53.1592 258.3741 0001379  90.2673 269.8486 15.30202387 13009
STARLINK-37204          
1 68329U 26059J   26165.54165647  .00025075  00000+0  75087-3 0  9996
2 68329  53.1580 253.4490 0001154  86.7183 273.3952 15.34396739 13075
STARLINK-37001          
1 68330U 26059K   26165.52601442  .00026683  00000+0  91020-3 0  9995
2 68330  53.1602 258.3567 0001310  88.7688 271.3463 15.30185997 13003
STARLINK-36932          
1 68331U 26059L   26165.50003471 -.00006534  00000+0 -18251-3 0  9992
2 68331  53.1599 253.9377 0001280  88.3847 250.6227 15.34383579  5917
STARLINK-37205          
1 68332U 26059M   26165.55553455  .00023270  00000+0  79500-3 0  9998
2 68332  53.1581 258.5247 0000930  95.6273 264.4834 15.30213710 13002
STARLINK-37180          
1 68333U 26059N   26165.50806388  .00028572  00000+0  85338-3 0  9996
2 68333  53.1601 253.9689 0001348  88.6581 271.4576 15.34405851 13063
STARLINK-37191          
1 68334U 26059P   26165.54815097  .00017487  00000+0  60124-3 0  9997
2 68334  53.1582 258.4789 0001199  92.6192 267.4946 15.30195343 13008
STARLINK-37217          
1 68335U 26059Q   26165.53904258  .00020901  00000+0  62784-3 0  9994
2 68335  53.1592 251.9999 0001072  80.9391 279.1733 15.34408400 13090
STARLINK-37143          
1 68336U 26059R   26165.54181914  .00018161  00000+0  62385-3 0  9994
2 68336  53.1581 258.4340 0001029  78.9761 281.1356 15.30196663 13007
