OBJECT_NAME,OBJECT_ID,EPOCH,MEAN_MOTION,ECCENTRICITY,INCLINATION,RA_OF_ASC_NODE,ARG_OF_PERICENTER,MEAN_ANOMALY,EPHEMERIS_TYPE,CLASSIFICATION_TYPE,NORAD_CAT_ID,ELEMENT_SET_NO,REV_AT_EPOCH,BSTAR,MEAN_MOTION_DOT,MEAN_MOTION_DDOT
STARLINK-36307,2026-057N,2026-06-14T12:00:02.998944,15.43913647,.0001693,97.2848,292.2666,93.8100,261.1980,0,U,68306,999,588,-.59168E-1,-.2391545E-1,0
STARLINK-36264,2026-057P,2026-06-14T12:00:02.998944,15.33448497,.0000993,97.2870,292.3350,96.6423,63.8383,0,U,68307,999,598,-.1498E-2,-.48136E-3,0
STARLINK-37138,2026-057Q,2026-06-14T12:00:02.998944,15.39204539,.000115,97.2856,292.1595,55.9922,47.9876,0,U,68308,999,582,-.88961E-1,-.3040143E-1,0
STARLINK-37149,2026-057R,2026-06-14T12:00:02.998944,15.38215328,.0001729,97.2855,292.3318,66.4385,71.3022,0,U,68309,999,593,-.70301E-1,-.2354242E-1,0
STARLINK-37148,2026-057S,2026-06-12T07:45:26.127648,15.49225419,.00006815,97.2840,290.1794,73.0424,287.0902,0,U,68310,999,1316,.83624071E-3,.45712E-3,0
STARLINK-37140,2026-057T,2026-06-14T12:00:02.998944,15.33468828,.0001138,97.2856,292.2721,53.1144,317.2861,0,U,68311,999,593,-.1239E-2,-.39895E-3,0
STARLINK-36854,2026-057U,2026-06-14T12:00:02.998944,15.33395912,.0001428,97.2859,292.3122,88.7649,11.8519,0,U,68312,999,593,-.77565E-3,-.24995E-3,0
STARLINK-36815,2026-057V,2026-06-14T05:40:38.963712,15.49227352,.0002882,97.2839,292.0146,70.5230,289.6332,0,U,68313,999,1345,.97976E-3,.53637E-3,0
STARLINK-37155,2026-057W,2026-06-14T12:00:02.998944,15.33467916,.0001512,97.2858,292.3038,59.5231,25.8897,0,U,68314,999,593,-.12802E-2,-.41212E-3,0
STARLINK-37150,2026-057X,2026-06-13T20:54:28.227456,15.49207451,.00003451,97.2843,291.5913,78.4645,281.6645,0,U,68315,999,1339,.10673969E-2,.58431E-3,0
STARLINK-37154,2026-057Y,2026-06-14T06:44:33.492480,15.49232923,.00024779,97.2857,291.9519,85.8209,274.3325,0,U,68316,999,1345,.14317907E-2,.78688E-3,0
STARLINK-37139,2026-057Z,2026-06-14T06:00:02.000160,15.33337059,.0001785,97.2854,292.0325,93.7351,352.5126,0,U,68317,999,595,.29703678E-2,.96729E-3,0
STARLINK-37113,2026-057AA,2026-06-14T06:00:02.000160,15.43464843,.0001938,97.2853,291.9636,87.3846,189.5915,0,U,68318,999,595,-.57372111E-1,-.229525E-1,0
PROGRESS-MS 33,2026-058A,2026-06-14T11:31:37.334208,15.49225904,.0004925,51.6335,313.4905,185.2578,174.8360,0,U,68319,999,57145,.15998E-3,.8443E-4,0
STARLINK-36987,2026-059A,2026-06-14T12:17:40.032096,15.30206029,.000126,53.1608,258.2470,85.4153,274.6991,0,U,68321,999,1300,.80765E-3,.23642E-3,0
STARLINK-37088,2026-059B,2026-06-14T11:59:29.308128,15.34407827,.0001087,53.1594,253.8946,97.1639,262.9487,0,U,68322,999,1306,.99262E-3,.33319E-3,0
STARLINK-36983,2026-059C,2026-06-14T11:44:20.464800,15.34405667,.0001201,53.1593,253.8351,104.8692,255.2444,0,U,68323,999,1305,.90391E-3,.30293E-3,0
STARLINK-37164,2026-059D,2026-06-14T12:51:06.080256,15.30221701,.000083,53.1591,258.3964,87.6878,272.4218,0,U,68324,999,1413,.10366E-2,.30488E-3,0
STARLINK-36309,2026-059E,2026-06-14T12:35:50.701632,15.34413492,.0001474,53.1602,254.0564,87.8251,272.2921,0,U,68325,999,1306,.65724E-3,.21904E-3,0
STARLINK-37206,2026-059F,2026-06-14T12:22:13.858752,15.30196474,.0001194,53.1604,258.2656,86.4493,273.6644,0,U,68326,999,1300,.67444E-3,.19666E-3,0
STARLINK-37199,2026-059G,2026-06-14T11:54:52.536096,15.30205847,.0001141,53.1579,258.1663,103.0036,257.1092,0,U,68327,999,1300,.84231E-3,.24675E-3,0
STARLINK-36245,2026-059H,2026-06-14T12:46:32.683008,15.30202387,.0001379,53.1592,258.3741,90.2673,269.8486,0,U,68328,999,1300,.94435E-3,.27716E-3,0
STARLINK-37204,2026-059J,2026-06-14T12:59:59.119008,15.34396739,.0001154,53.1580,253.4490,86.7183,273.3952,0,U,68329,999,1307,.75087E-3,.25075E-3,0
STARLINK-37001,2026-059K,2026-06-14T12:37:27.645888,15.30185997,.000131,53.1602,258.3567,88.7688,271.3463,0,U,68330,999,1300,.9102E-3,.26683E-3,0
STARLINK-36932,2026-059L,2026-06-14T12:00:02.998944,15.34383579,.000128,53.1599,253.9377,88.3847,250.6227,0,U,68331,999,591,-.18251E-3,-.6534E-4,0
STARLINK-37205,2026-059M,2026-06-14T13:19:58.185120,15.30213710,.000093,53.1581,258.5247,95.6273,264.4834,0,U,68332,999,1300,.795E-3,.2327E-3,0
STARLINK-37180,2026-059N,2026-06-14T12:11:36.719232,15.34405851,.0001348,53.1601,253.9689,88.6581,271.4576,0,U,68333,999,1306,.85338E-3,.28572E-3,0
STARLINK-37191,2026-059P,2026-06-14T13:09:20.243808,15.30195343,.0001199,53.1582,258.4789,92.6192,267.4946,0,U,68334,999,1300,.60124E-3,.17487E-3,0
STARLINK-37217,2026-059Q,2026-06-14T12:56:13.278912,15.34408400,.0001072,53.1592,251.9999,80.9391,279.1733,0,U,68335,999,1309,.62784E-3,.20901E-3,0
STARLINK-37143,2026-059R,2026-06-14T13:00:13.173696,15.30196663,.0001029,53.1581,258.4340,78.9761,281.1356,0,U,68336,999,1300,.62385E-3,.18161E-3,0
